[{"OBJECT_NAME":"UHETSAT","OBJECT_ID":"2023-185E","EPOCH":"2026-03-09T22:39:26.455680","MEAN_MOTION":15.29797662,"ECCENTRICITY":0.00118435,"INCLINATION":97.3584,"RA_OF_ASC_NODE":137.3576,"ARG_OF_PERICENTER":307.7346,"MEAN_ANOMALY":52.2821,"EPHEMERIS_TYPE":0,"CLASSIFICATION_TYPE":"U","NORAD_CAT_ID":58466,"ELEMENT_SET_NO":999,"REV_AT_EPOCH":12611,"BSTAR":0.00030513019,"MEAN_MOTION_DOT":8.749e-5,"MEAN_MOTION_DDOT":0},{"OBJECT_NAME":"STARLINK-33674","OBJECT_ID":"2025-057Y","EPOCH":"2026-03-09T22:21:17.636832","MEAN_MOTION":15.27581382,"ECCENTRICITY":4.501e-5,"INCLINATION":42.9993,"RA_OF_ASC_NODE":29.549,"ARG_OF_PERICENTER":243.4812,"MEAN_ANOMALY":116.5993,"EPHEMERIS_TYPE":0,"CLASSIFICATION_TYPE":"U","NORAD_CAT_ID":63329,"ELEMENT_SET_NO":999,"REV_AT_EPOCH":5581,"BSTAR":0.0010336035,"MEAN_MOTION_DOT":0.00028291,"MEAN_MOTION_DDOT":0}]
